[
  {
    "OBJECT_NAME": "STARLINK-34439",
    "OBJECT_ID": "25130W",
    "EPOCH": "2025-11-11T04:36:57.742272",
    "MEAN_MOTION": 15.30193723,
    "ECCENTRICITY": 0.0001256,
    "INCLINATION": 53.1591,
    "RA_OF_ASC_NODE": 278.7256,
    "ARG_OF_PERICENTER": 93.8701,
    "MEAN_ANOMALY": 266.2443,
    "EPHEMERIS_TYPE": 0,
    "CLASSIFICATION_TYPE": "U",
    "NORAD_CAT_ID": 64458,
    "ELEMENT_SET_NO": 999,
    "REV_AT_EPOCH": 2256,
    "BSTAR": 0.0012109,
    "MEAN_MOTION_DOT": 0.00035669,
    "MEAN_MOTION_DDOT": 0.0,
    "TLE_LINE1": "1 64458U 25130W   25315.19233498  .00035669  00000+0  12109-2 0  9996",
    "TLE_LINE2": "2 64458  53.1591 278.7256 0001256  93.8701 266.2443 15.30193723 22568",
    "COMMENT": "Grouped by shell and plane from TLE"
  },
  {
    "OBJECT_NAME": "STARLINK-34421",
    "OBJECT_ID": "25130X",
    "EPOCH": "2025-11-11T06:53:34.011744",
    "MEAN_MOTION": 15.30214085,
    "ECCENTRICITY": 0.0001172,
    "INCLINATION": 53.1613,
    "RA_OF_ASC_NODE": 278.6044,
    "ARG_OF_PERICENTER": 101.1678,
    "MEAN_ANOMALY": 258.9455,
    "EPHEMERIS_TYPE": 0,
    "CLASSIFICATION_TYPE": "U",
    "NORAD_CAT_ID": 64459,
    "ELEMENT_SET_NO": 999,
    "REV_AT_EPOCH": 2257,
    "BSTAR": 0.0007815400000000001,
    "MEAN_MOTION_DOT": 0.00022869,
    "MEAN_MOTION_DDOT": 0.0,
    "TLE_LINE1": "1 64459U 25130X   25315.28719921  .00022869  00000+0  78154-3 0  9998",
    "TLE_LINE2": "2 64459  53.1613 278.6044 0001172 101.1678 258.9455 15.30214085 22578",
    "COMMENT": "Grouped by shell and plane from TLE"
  },
  {
    "OBJECT_NAME": "STARLINK-34423",
    "OBJECT_ID": "25130Y",
    "EPOCH": "2025-11-11T04:27:50.868288",
    "MEAN_MOTION": 15.30213756,
    "ECCENTRICITY": 0.000102,
    "INCLINATION": 53.1595,
    "RA_OF_ASC_NODE": 278.6838,
    "ARG_OF_PERICENTER": 97.4855,
    "MEAN_ANOMALY": 262.6261,
    "EPHEMERIS_TYPE": 0,
    "CLASSIFICATION_TYPE": "U",
    "NORAD_CAT_ID": 64460,
    "ELEMENT_SET_NO": 999,
    "REV_AT_EPOCH": 2256,
    "BSTAR": 0.00086275,
    "MEAN_MOTION_DOT": 0.00025291,
    "MEAN_MOTION_DDOT": 0.0,
    "TLE_LINE1": "1 64460U 25130Y   25315.18600542  .00025291  00000+0  86275-3 0  9992",
    "TLE_LINE2": "2 64460  53.1595 278.6838 0001020  97.4855 262.6261 15.30213756 22566",
    "COMMENT": "Grouped by shell and plane from TLE"
  },
  {
    "OBJECT_NAME": "STARLINK-34418",
    "OBJECT_ID": "25130Z",
    "EPOCH": "2025-11-11T03:59:08.396160",
    "MEAN_MOTION": 15.30206437,
    "ECCENTRICITY": 5.89e-05,
    "INCLINATION": 53.1634,
    "RA_OF_ASC_NODE": 279.2691,
    "ARG_OF_PERICENTER": 75.4494,
    "MEAN_ANOMALY": 284.6572,
    "EPHEMERIS_TYPE": 0,
    "CLASSIFICATION_TYPE": "U",
    "NORAD_CAT_ID": 64461,
    "ELEMENT_SET_NO": 999,
    "REV_AT_EPOCH": 2255,
    "BSTAR": 0.00071703,
    "MEAN_MOTION_DOT": 0.00020941,
    "MEAN_MOTION_DDOT": 0.0,
    "TLE_LINE1": "1 64461U 25130Z   25315.16606940  .00020941  00000+0  71703-3 0  9996",
    "TLE_LINE2": "2 64461  53.1634 279.2691 0000589  75.4494 284.6572 15.30206437 22555",
    "COMMENT": "Grouped by shell and plane from TLE"
  },
  {
    "OBJECT_NAME": "STARLINK-34429",
    "OBJECT_ID": "25130AC",
    "EPOCH": "2025-11-11T06:30:46.556352",
    "MEAN_MOTION": 15.30214398,
    "ECCENTRICITY": 0.0001764,
    "INCLINATION": 53.1603,
    "RA_OF_ASC_NODE": 278.5046,
    "ARG_OF_PERICENTER": 92.517,
    "MEAN_ANOMALY": 267.6033,
    "EPHEMERIS_TYPE": 0,
    "CLASSIFICATION_TYPE": "U",
    "NORAD_CAT_ID": 64464,
    "ELEMENT_SET_NO": 999,
    "REV_AT_EPOCH": 2257,
    "BSTAR": 0.00074987,
    "MEAN_MOTION_DOT": 0.00021925,
    "MEAN_MOTION_DDOT": 0.0,
    "TLE_LINE1": "1 64464U 25130AC  25315.27137218  .00021925  00000+0  74987-3 0  9998",
    "TLE_LINE2": "2 64464  53.1603 278.5046 0001764  92.5170 267.6033 15.30214398 22577",
    "COMMENT": "Grouped by shell and plane from TLE"
  },
  {
    "OBJECT_NAME": "STARLINK-34449",
    "OBJECT_ID": "25130AD",
    "EPOCH": "2025-11-11T06:56:36.377952",
    "MEAN_MOTION": 15.30210321,
    "ECCENTRICITY": 0.0001601,
    "INCLINATION": 53.1616,
    "RA_OF_ASC_NODE": 278.6127,
    "ARG_OF_PERICENTER": 67.9348,
    "MEAN_ANOMALY": 292.1823,
    "EPHEMERIS_TYPE": 0,
    "CLASSIFICATION_TYPE": "U",
    "NORAD_CAT_ID": 64465,
    "ELEMENT_SET_NO": 999,
    "REV_AT_EPOCH": 2257,
    "BSTAR": 0.0016203,
    "MEAN_MOTION_DOT": 0.00047954,
    "MEAN_MOTION_DDOT": 0.0,
    "TLE_LINE1": "1 64465U 25130AD  25315.28930993  .00047954  00000+0  16203-2 0  9997",
    "TLE_LINE2": "2 64465  53.1616 278.6127 0001601  67.9348 292.1823 15.30210321 22578",
    "COMMENT": "Grouped by shell and plane from TLE"
  },
  {
    "OBJECT_NAME": "STARLINK-35392",
    "OBJECT_ID": "25221A",
    "EPOCH": "2025-11-11T04:14:17.960928",
    "MEAN_MOTION": 15.30208504,
    "ECCENTRICITY": 0.0001169,
    "INCLINATION": 53.1614,
    "RA_OF_ASC_NODE": 279.1745,
    "ARG_OF_PERICENTER": 77.8801,
    "MEAN_ANOMALY": 282.233,
    "EPHEMERIS_TYPE": 0,
    "CLASSIFICATION_TYPE": "U",
    "NORAD_CAT_ID": 65823,
    "ELEMENT_SET_NO": 999,
    "REV_AT_EPOCH": 793,
    "BSTAR": 0.0011845,
    "MEAN_MOTION_DOT": 0.00034897,
    "MEAN_MOTION_DDOT": 0.0,
    "TLE_LINE1": "1 65823U 25221A   25315.17659677  .00034897  00000+0  11845-2 0  9991",
    "TLE_LINE2": "2 65823  53.1614 279.1745 0001169  77.8801 282.2330 15.30208504  7936",
    "COMMENT": "Grouped by shell and plane from TLE"
  },
  {
    "OBJECT_NAME": "STARLINK-35281",
    "OBJECT_ID": "25221B",
    "EPOCH": "2025-11-11T04:18:51.333984",
    "MEAN_MOTION": 15.30218474,
    "ECCENTRICITY": 9.15e-05,
    "INCLINATION": 53.1614,
    "RA_OF_ASC_NODE": 279.1921,
    "ARG_OF_PERICENTER": 93.9757,
    "MEAN_ANOMALY": 266.1349,
    "EPHEMERIS_TYPE": 0,
    "CLASSIFICATION_TYPE": "U",
    "NORAD_CAT_ID": 65824,
    "ELEMENT_SET_NO": 999,
    "REV_AT_EPOCH": 793,
    "BSTAR": 0.0014165,
    "MEAN_MOTION_DOT": 0.00041854,
    "MEAN_MOTION_DDOT": 0.0,
    "TLE_LINE1": "1 65824U 25221B   25315.17976081  .00041854  00000+0  14165-2 0  9992",
    "TLE_LINE2": "2 65824  53.1614 279.1921 0000915  93.9757 266.1349 15.30218474  7938",
    "COMMENT": "Grouped by shell and plane from TLE"
  },
  {
    "OBJECT_NAME": "STARLINK-35397",
    "OBJECT_ID": "25221C",
    "EPOCH": "2025-11-11T08:00:03.000384",
    "MEAN_MOTION": 15.30137425,
    "ECCENTRICITY": 0.0001447,
    "INCLINATION": 53.1592,
    "RA_OF_ASC_NODE": 278.1457,
    "ARG_OF_PERICENTER": 72.7801,
    "MEAN_ANOMALY": 222.6815,
    "EPHEMERIS_TYPE": 0,
    "CLASSIFICATION_TYPE": "U",
    "NORAD_CAT_ID": 65825,
    "ELEMENT_SET_NO": 999,
    "REV_AT_EPOCH": 597,
    "BSTAR": 0.002502,
    "MEAN_MOTION_DOT": 0.00074342,
    "MEAN_MOTION_DDOT": 0.0,
    "TLE_LINE1": "1 65825U 25221C   25315.33336806  .00074342  00000+0  25020-2 0  9996",
    "TLE_LINE2": "2 65825  53.1592 278.1457 0001447  72.7801 222.6815 15.30137425  5976",
    "COMMENT": "Grouped by shell and plane from TLE"
  },
  {
    "OBJECT_NAME": "STARLINK-35381",
    "OBJECT_ID": "25221D",
    "EPOCH": "2025-11-11T08:00:03.000384",
    "MEAN_MOTION": 15.3013229,
    "ECCENTRICITY": 0.0001324,
    "INCLINATION": 53.1582,
    "RA_OF_ASC_NODE": 277.994,
    "ARG_OF_PERICENTER": 94.9312,
    "MEAN_ANOMALY": 276.1521,
    "EPHEMERIS_TYPE": 0,
    "CLASSIFICATION_TYPE": "U",
    "NORAD_CAT_ID": 65826,
    "ELEMENT_SET_NO": 999,
    "REV_AT_EPOCH": 597,
    "BSTAR": 0.002758,
    "MEAN_MOTION_DOT": 0.00082057,
    "MEAN_MOTION_DDOT": 0.0,
    "TLE_LINE1": "1 65826U 25221D   25315.33336806  .00082057  00000+0  27580-2 0  9992",
    "TLE_LINE2": "2 65826  53.1582 277.9940 0001324  94.9312 276.1521 15.30132290  5970",
    "COMMENT": "Grouped by shell and plane from TLE"
  },
  {
    "OBJECT_NAME": "STARLINK-35393",
    "OBJECT_ID": "25221E",
    "EPOCH": "2025-11-11T07:04:10.128288",
    "MEAN_MOTION": 15.30215729,
    "ECCENTRICITY": 0.0001358,
    "INCLINATION": 53.1618,
    "RA_OF_ASC_NODE": 278.4825,
    "ARG_OF_PERICENTER": 96.9063,
    "MEAN_ANOMALY": 263.2093,
    "EPHEMERIS_TYPE": 0,
    "CLASSIFICATION_TYPE": "U",
    "NORAD_CAT_ID": 65827,
    "ELEMENT_SET_NO": 999,
    "REV_AT_EPOCH": 795,
    "BSTAR": 0.0009274099999999999,
    "MEAN_MOTION_DOT": 0.00027222,
    "MEAN_MOTION_DDOT": 0.0,
    "TLE_LINE1": "1 65827U 25221E   25315.29456167  .00027222  00000+0  92741-3 0  9996",
    "TLE_LINE2": "2 65827  53.1618 278.4825 0001358  96.9063 263.2093 15.30215729  7951",
    "COMMENT": "Grouped by shell and plane from TLE"
  },
  {
    "OBJECT_NAME": "STARLINK-35396",
    "OBJECT_ID": "25221F",
    "EPOCH": "2025-11-11T08:00:03.000384",
    "MEAN_MOTION": 15.30136548,
    "ECCENTRICITY": 0.0001553,
    "INCLINATION": 53.1589,
    "RA_OF_ASC_NODE": 278.111,
    "ARG_OF_PERICENTER": 92.7151,
    "MEAN_ANOMALY": 220.1943,
    "EPHEMERIS_TYPE": 0,
    "CLASSIFICATION_TYPE": "U",
    "NORAD_CAT_ID": 65828,
    "ELEMENT_SET_NO": 999,
    "REV_AT_EPOCH": 602,
    "BSTAR": 0.0024571000000000003,
    "MEAN_MOTION_DOT": 0.00072986,
    "MEAN_MOTION_DDOT": 0.0,
    "TLE_LINE1": "1 65828U 25221F   25315.33336806  .00072986  00000+0  24571-2 0  9991",
    "TLE_LINE2": "2 65828  53.1589 278.1110 0001553  92.7151 220.1943 15.30136548  6026",
    "COMMENT": "Grouped by shell and plane from TLE"
  },
  {
    "OBJECT_NAME": "STARLINK-35368",
    "OBJECT_ID": "25221H",
    "EPOCH": "2025-11-11T04:26:27.155328",
    "MEAN_MOTION": 15.30213677,
    "ECCENTRICITY": 9.81e-05,
    "INCLINATION": 53.1602,
    "RA_OF_ASC_NODE": 279.2223,
    "ARG_OF_PERICENTER": 89.9257,
    "MEAN_ANOMALY": 270.1856,
    "EPHEMERIS_TYPE": 0,
    "CLASSIFICATION_TYPE": "U",
    "NORAD_CAT_ID": 65830,
    "ELEMENT_SET_NO": 999,
    "REV_AT_EPOCH": 789,
    "BSTAR": 0.0011425,
    "MEAN_MOTION_DOT": 0.00033646,
    "MEAN_MOTION_DDOT": 0.0,
    "TLE_LINE1": "1 65830U 25221H   25315.18503652  .00033646  00000+0  11425-2 0  9996",
    "TLE_LINE2": "2 65830  53.1602 279.2223 0000981  89.9257 270.1856 15.30213677  7894",
    "COMMENT": "Grouped by shell and plane from TLE"
  }
]